ONEWEB-0045             
1 45151U 20008W   24122.38512608  .00000136  00000+0  34728-3 0  9996
2 45151  87.8999 175.5608 0002114 101.6508 258.4857 13.11416005208594
ONEWEB-0047             
1 45152U 20008X   24122.44061864 -.00000504  00000+0 -14812-2 0  9999
2 45152  87.8979 190.6543 0001992  99.8209 260.3143 13.10370094206479
ONEWEB-0048             
1 45153U 20008Y   24122.51200364 -.00000346  00000+0 -10277-2 0  9993
2 45153  87.8982 190.6549 0002009  98.8275 261.3080 13.10369503206869
ONEWEB-0049             
1 45154U 20008Z   24122.43730475 -.00000435  00000+0 -12833-2 0  9995
2 45154  87.8984 190.6475 0002073  83.9121 276.2243 13.10369659206303
ONEWEB-0051             
1 45155U 20008AA  24122.38349772  .00000198  00000+0  52159-3 0  9996
2 45155  87.8998 175.6025 0002267 100.9641 259.1742 13.11416299209272
ONEWEB-0052             
1 45156U 20008AB  24122.43399160 -.00000224  00000+0 -67918-3 0  9990
2 45156  87.8976 190.6230 0001934  84.1672 275.9676 13.10370571206215
ONEWEB-0053             
1 45157U 20008AC  24122.41574401  .00000570  00000+0  15962-2 0  9995
2 45157  87.8980 190.6780 0001990  95.5993 264.5361 13.10370393206188
ONEWEB-0054             
1 45158U 20008AD  24122.45059530 -.00000632  00000+0 -18467-2 0  9995
2 45158  87.8982 190.6541 0002172 100.4732 259.6640 13.10375823206308
